#aV2006  9  4  0  0   .00000000      96 DD+AD WGS84 FIT  NGA
## 1391  86400.00000000   900.00000000 53982  .0000000000000
+   29     1  2  3  4  5  6  7  8  9 10 11 13 14 15 16 17 18
+         19 20 21 22 23 24 25 26 27 28 29 30  0  0  0  0  0
+          0  0  0  0  0  0  0  0  0  0  0  0  0  0  0  0  0
+          0  0  0  0  0  0  0  0  0  0  0  0  0  0  0  0  0
+          0  0  0  0  0  0  0  0  0  0  0  0  0  0  0  0  0
++         0  0  0  0  0  0  0  0  0  0  0  0  0  0  0  0  0
++         0  0  0  0  0  0  0  0  0  0  0  0  0  0  0  0  0
++         0  0  0  0  0  0  0  0  0  0  0  0  0  0  0  0  0
++         0  0  0  0  0  0  0  0  0  0  0  0  0  0  0  0  0
++         0  0  0  0  0  0  0  0  0  0  0  0  0  0  0  0  0
%c cc cc ccc ccc cccc cccc cccc cccc ccccc ccccc ccccc ccccc
%c cc cc ccc ccc cccc cccc cccc cccc ccccc ccccc ccccc ccccc
%f  0.0000000  0.000000000  0.00000000000  0.000000000000000
%f  0.0000000  0.000000000  0.00000000000  0.000000000000000
%i    0    0    0    0      0      0      0      0         0
%i    0    0    0    0      0      0      0      0         0
/*      NGA, ST. LOUIS,MO.                                  
/*   EPHEMERIS COMPUTED FROM  3 DAYS OF DATA                
/* CCCCCCCCCCCCCCCCCCCCCCCCCCCCCCCCCCCCCCCCCCCCCCCCCCCCCCCCC
/* CCCCCCCCCCCCCCCCCCCCCCCCCCCCCCCCCCCCCCCCCCCCCCCCCCCCCCCCC
*  2006  9  4 21 45   .00000000                                                 
P  1  15803.817548   3994.439896 -20788.516636     74.853525                    
V  1   7967.259351  25551.909213  10804.099707       .022622                    
P  2 -20211.133038   7087.412503 -15802.745715     31.513357                    
V  2  10590.601220 -16827.949565 -21646.777304       .039252                    
P  3  16410.743885  -1888.219122  20667.263532     39.984187                    
V  3  11292.899717  24242.551227  -6376.509855       .584369                    
P  4 -15480.606750  -5060.403686 -21073.782172    304.980497                    
V  4  16657.406242 -20815.882736  -6901.893469       .060242                    
P  5 -11862.531355  13581.073177 -19670.507252    330.898510                    
V  5 -24462.123334  -3244.838066  12814.794188       .153579                    
P  6   6176.938973  25133.527801  -5624.255466    598.132883                    
V  6  -6245.064909  -5413.253593 -30077.716296      -.021138                    
P  7  17813.610103  14083.047471  14037.703672    530.117404                    
V  7   4743.049913  16922.320715 -23668.342952      -.037431                    
P  8  -8351.233004 -12707.562643  21588.146864    -78.492300                    
V  8  18770.304412 -20469.453524  -5166.246519      -.013388                    
P  9 -15363.477139  21488.041179   -753.572241     34.775849                    
V  9  -2582.638438  -1574.481183  31931.726122       .015750                    
P 10 -25160.871007   1528.570720   8754.410319     89.151748                    
V 10 -10612.724187  -3958.638818 -29185.290643       .005930                    
P 11  12126.091231 -23421.890218  -1598.914393    348.613686                    
V 11   5366.945523    819.138558  30318.980212       .020009                    
P 13  -5668.943654 -25526.683241  -4885.779070     91.484646                    
V 13   3631.153231   5138.927871 -31628.555018       .032923                    
P 14  14953.441938  18791.543140 -11353.715778     -6.173828                    
V 14   3449.144800  14142.092651  27711.616382       .006945                    
P 15   9292.269263  12284.753575  21468.926397    611.261571                    
V 15 -19285.357826  19813.992050  -3391.158011      -.575191                    
P 16  26153.247092    853.893097   5000.489233     70.370607                    
V 16   5716.005601   3561.951383 -30880.991241       .032407                    
P 17 -15262.444824 -19041.513257 -10615.415371     96.705625                    
V 17  -2569.604274 -13409.239536  27654.597370      -.008944                    
P 18   9401.735645  15821.606019  19382.586413   -248.133305                    
V 18 -24017.709768  -3653.885506  14402.049313      -.009561                    
P 19  11062.311543 -12858.190019  20528.285044     13.053528                    
V 19   8760.600242  24344.561662  10650.589273       .030531                    
P 20   7440.038939 -14110.920887 -21321.769214    -22.748271                    
V 20  26515.138747   4483.018792   6336.981617       .002417                    
P 21   2174.091502  18437.265228  18873.345518     50.972897                    
V 21 -17205.461519  16904.222343 -15139.662379       .019102                    
P 22  21140.773689  12167.401695  10699.874107    131.445280                    
V 22 -13598.965252   -218.566384  27501.711362       .030531                    
P 23   2656.722009 -21708.342785 -15032.952505    137.783429                    
V 23   8679.839434  16992.295787 -23327.187465       .000829                    
P 24 -10335.617217 -11141.345942 -21542.902599     33.645502                    
V 24  18849.227106 -20606.803341   1875.540581       .027845                    
P 25  17877.724050  -2462.759710 -19139.169374    315.286633                    
V 25 -12734.560764  21705.856956 -14250.210441       .148952                    
P 26 -10948.971655  10696.288638  21206.111703   -241.879288                    
V 26 -10054.856464 -26056.959689   8354.858025      -.144533                    
P 27  -1230.905744 -19960.598186  17932.934894     66.250091                    
V 27  13929.433124 -16714.944862 -18585.738368       .019141                    
P 28 -18559.439852 -13317.497685  14135.557726     19.428352                    
V 28  17368.364546   1220.711838  24125.166963      -.009097                    
P 29 -12583.222717   8000.918092  22186.328409    -17.415418                    
V 29 -10404.542127 -25531.156364   3628.293877      -.616442                    
P 30   3044.074472  15904.102339 -21363.320750      9.006261                    
V 30 -26357.302491  -2641.730211  -5686.511660       .010939                    
EOF
